NORAD_CAT_ID,OBJECT_NAME,OBJECT_TYPE,EPOCH,MEAN_MOTION,ECCENTRICITY,INCLINATION,RA_OF_ASC_NODE,ARG_OF_PERICENTER,MEAN_ANOMALY,BSTAR,MEAN_MOTION_DOT,MEAN_MOTION_DDOT,TLE_LINE0,TLE_LINE1,TLE_LINE2,SEMIMAJOR_AXIS,PERIOD,APOGEE,PERIGEE,DECAYED
49732.0,STARLINK-3246,PAYLOAD,2023-11-07 11:32:36,15.08816095,0.0001387,53.2186,29.2988,98.4306,261.6843,-0.00011881,-2.177e-05,0.0,0 STARLINK-3246,1 49732U 21115J   23311.48098063 -.00002177  00000-0 -11881-3 0  9994,2 49732  53.2186  29.2988 0001387  98.4306 261.6843 15.08816095107695,6917.953,95.439,540.778,538.859,0.0
49732.0,STARLINK-3246,PAYLOAD,2023-11-07 13:07:59,15.08837559,0.0001581,53.2188,28.9984,66.3106,293.8052,5.7917e-05,6.34e-06,0.0,0 STARLINK-3246,1 49732U 21115J   23311.54721347  .00000634  00000-0  57917-4 0  9994,2 49732  53.2188  28.9984 0001581  66.3106 293.8052 15.08837559106592,6917.888,95.438,540.847,538.659,0.0
49732.0,STARLINK-3246,PAYLOAD,2023-11-08 11:23:22,15.08851025,0.0001122,53.2178,24.8386,77.2447,282.8671,0.00027963,4.167e-05,0.0,0 STARLINK-3246,1 49732U 21115J   23312.47456841  .00004167  00000-0  27963-3 0  9993,2 49732  53.2178  24.8386 0001122  77.2447 282.8671 15.08851025107840,6917.847,95.437,540.488,538.936,0.0
49732.0,STARLINK-3246,PAYLOAD,2023-11-09 11:14:09,15.0884694,0.0001219,53.2189,20.3795,87.5702,272.543,0.00031563,4.74e-05,0.0,0 STARLINK-3246,1 49732U 21115J   23313.46816494  .00004740  00000-0  31563-3 0  9995,2 49732  53.2189  20.3795 0001219  87.5702 272.5430 15.08846940107997,6917.859,95.437,540.567,538.881,0.0
49732.0,STARLINK-3246,PAYLOAD,2023-11-10 04:43:24,15.08848812,0.0001307,53.2172,17.1105,75.0173,285.0964,6.6261e-05,7.67e-06,0.0,0 STARLINK-3246,1 49732U 21115J   23314.19680606  .00000767  00000-0  66261-4 0  9999,2 49732  53.2172  17.1105 0001307  75.0173 285.0964 15.08848812108105,6917.853,95.437,540.623,538.814,0.0
49732.0,STARLINK-3246,PAYLOAD,2023-11-10 11:04:56,15.0885607,0.0001328,53.2188,15.9153,90.1972,269.9172,-1.4349e-05,-5.16e-06,0.0,0 STARLINK-3246,1 49732U 21115J   23314.46176107 -.00000516  00000-0 -14349-4 0  9999,2 49732  53.2188  15.9153 0001328  90.1972 269.9172 15.08856070107037,6917.831,95.437,540.615,538.778,0.0
49732.0,STARLINK-3246,PAYLOAD,2023-11-11 10:55:43,15.08847464,0.0001522,53.2189,11.4571,95.1798,264.9368,-3.7755e-05,-8.89e-06,0.0,0 STARLINK-3246,1 49732U 21115J   23315.45536272 -.00000889  00000-0 -37755-4 0  9991,2 49732  53.2189  11.4571 0001522  95.1798 264.9368 15.08847464108298,6917.858,95.437,540.775,538.67,0.0
49732.0,STARLINK-3246,PAYLOAD,2023-11-11 20:28:02,15.08845205,0.0001526,53.2187,9.6734,94.0973,266.0193,-5.4064e-05,-1.148e-05,0.0,0 STARLINK-3246,1 49732U 21115J   23315.85280258 -.00001148  00000-0 -54064-4 0  9996,2 49732  53.2187   9.6734 0001526  94.0973 266.0193 15.08845205107247,6917.864,95.437,540.785,538.674,0.0
49732.0,STARLINK-3246,PAYLOAD,2023-11-11 23:38:48,15.08836753,0.000168,53.2184,9.0815,94.8886,265.2298,3.8957e-05,3.32e-06,0.0,0 STARLINK-3246,1 49732U 21115J   23315.98528687  .00000332  00000-0  38957-4 0  9996,2 49732  53.2184   9.0815 0001680  94.8886 265.2298 15.08836753108370,6917.89,95.438,540.918,538.593,0.0
49732.0,STARLINK-3246,PAYLOAD,2023-11-12 10:46:31,15.08834054,0.0001644,53.2182,6.9993,95.9568,264.1612,1.6912e-05,-1.9e-07,0.0,0 STARLINK-3246,1 49732U 21115J   23316.44897088 -.00000019  00000-0  16912-4 0  9992,2 49732  53.2182   6.9993 0001644  95.9568 264.1612 15.08834054107335,6917.899,95.438,540.901,538.626,0.0
49732.0,STARLINK-3246,PAYLOAD,2023-11-12 20:18:49,15.08840912,0.0001641,53.2181,5.2146,94.9006,265.2173,3.0715e-05,2.01e-06,0.0,0 STARLINK-3246,1 49732U 21115J   23316.84640636  .00000201  00000-0  30715-4 0  9990,2 49732  53.2181   5.2146 0001641  94.9006 265.2173 15.08840912107399,6917.878,95.437,540.878,538.607,0.0
49732.0,STARLINK-3246,PAYLOAD,2023-11-13 02:40:21,15.08841428,0.0001625,53.2176,4.0239,97.822,262.2957,7.714e-05,9.4e-06,0.0,0 STARLINK-3246,1 49732U 21115J   23317.11136550  .00000940  00000-0  77140-4 0  9999,2 49732  53.2176   4.0239 0001625  97.8220 262.2957 15.08841428108543,6917.876,95.437,540.865,538.617,0.0
49732.0,STARLINK-3246,PAYLOAD,2023-11-13 10:37:17,15.08848081,0.0001639,53.2176,2.5374,97.5593,262.5585,0.0001302,1.785e-05,0.0,0 STARLINK-3246,1 49732U 21115J   23317.44255977  .00001785  00000-0  13020-3 0  9994,2 49732  53.2176   2.5374 0001639  97.5593 262.5585 15.08848081107485,6917.856,95.437,540.855,538.587,0.0
49732.0,STARLINK-3246,PAYLOAD,2023-11-14 02:31:09,15.08838909,0.0001676,53.2173,359.5642,87.1549,272.9635,0.00010733,1.42e-05,0.0,0 STARLINK-3246,1 49732U 21115J   23318.10496568  .00001420  00000-0  10733-3 0  9995,2 49732  53.2173 359.5642 0001676  87.1549 272.9635 15.08838909108695,6917.884,95.438,540.908,538.589,0.0
49732.0,STARLINK-3246,PAYLOAD,2023-11-14 10:28:05,15.08833156,0.0001582,53.2174,358.0766,89.3098,270.8076,4.8822e-05,4.89e-06,0.0,0 STARLINK-3246,1 49732U 21115J   23318.43617144  .00000489  00000-0  48822-4 0  9991,2 49732  53.2174 358.0766 0001582  89.3098 270.8076 15.08833156108747,6917.901,95.438,540.861,538.672,0.0
49732.0,STARLINK-3246,PAYLOAD,2023-11-14 20:00:23,15.08839592,0.0001613,53.2169,356.2919,84.4497,275.6679,3.4546e-05,2.62e-06,0.0,0 STARLINK-3246,1 49732U 21115J   23318.83360844  .00000262  00000-0  34546-4 0  9994,2 49732  53.2169 356.2919 0001613  84.4497 275.6679 15.08839592107690,6917.882,95.438,540.862,538.631,0.0
49732.0,STARLINK-3246,PAYLOAD,2023-11-15 02:21:56,15.08845974,0.0001828,53.2168,355.1025,83.1826,276.9374,-6.9482e-05,-1.394e-05,0.0,0 STARLINK-3246,1 49732U 21115J   23319.09856788 -.00001394  00000-0 -69482-4 0  9996,2 49732  53.2168 355.1025 0001828  83.1826 276.9374 15.08845974108840,6917.862,95.437,540.992,538.463,0.0
49732.0,STARLINK-3246,PAYLOAD,2023-11-15 08:43:28,15.08841481,0.0001717,53.2168,353.9134,80.4354,279.6833,2.8352e-05,1.63e-06,0.0,0 STARLINK-3246,1 49732U 21115J   23319.36352718  .00000163  00000-0  28352-4 0  9992,2 49732  53.2168 353.9134 0001717  80.4354 279.6833 15.08841481107770,6917.876,95.437,540.929,538.553,0.0
49732.0,STARLINK-3246,PAYLOAD,2023-11-15 19:51:10,15.08847311,0.0001546,53.2169,351.8317,87.7132,272.4037,-2.3822e-05,-6.67e-06,0.0,0 STARLINK-3246,1 49732U 21115J   23319.82720288 -.00000667  00000-0 -23822-4 0  9992,2 49732  53.2169 351.8317 0001546  87.7132 272.4037 15.08847311107848,6917.858,95.437,540.793,538.654,0.0
49732.0,STARLINK-3246,PAYLOAD,2023-11-16 08:34:16,15.08815442,0.0001843,53.218,349.4534,81.961,278.1591,0.00035824,5.414e-05,0.0,0 STARLINK-3246,1 49732U 21115J   23320.35713554  .00005414  00000-0  35824-3 0  9997,2 49732  53.2180 349.4534 0001843  81.9610 278.1591 15.08815442109033,6917.955,95.439,541.095,538.545,0.0
49732.0,STARLINK-3246,PAYLOAD,2023-11-16 19:41:57,15.08838241,0.0001869,53.2178,347.3722,78.9843,281.1359,5.3313e-05,5.6e-06,0.0,0 STARLINK-3246,1 49732U 21115J   23320.82080885  .00000560  00000-0  53313-4 0  9994,2 49732  53.2178 347.3722 0001869  78.9843 281.1359 15.08838241107999,6917.886,95.438,541.044,538.458,0.0
49732.0,STARLINK-3246,PAYLOAD,2023-11-17 02:03:30,15.08838335,0.0002008,53.2184,346.1825,80.0956,280.0263,3.1733e-05,2.17e-06,0.0,0 STARLINK-3246,1 49732U 21115J   23321.08577017  .00000217  00000-0  31733-4 0  9992,2 49732  53.2184 346.1825 0002008  80.0956 280.0263 15.08838335109147,6917.885,95.438,541.14,538.361,0.0
49732.0,STARLINK-3246,PAYLOAD,2023-11-17 08:25:03,15.08838667,0.0001707,53.2174,344.991,93.1875,266.9313,1.0314e-05,-1.24e-06,0.0,0 STARLINK-3246,1 49732U 21115J   23321.35072947 -.00000124  00000-0  10314-4 0  9994,2 49732  53.2174 344.9910 0001707  93.1875 266.9313 15.08838667108075,6917.884,95.438,540.93,538.569,0.0
49732.0,STARLINK-3246,PAYLOAD,2023-11-18 08:15:50,15.08839341,0.0001696,53.2176,340.5306,93.6829,266.4357,3.924e-05,3.36e-06,0.0,0 STARLINK-3246,1 49732U 21115J   23322.34432958  .00000336  00000-0  39240-4 0  9999,2 49732  53.2176 340.5306 0001696  93.6829 266.4357 15.08839341109332,6917.882,95.438,540.921,538.574,0.0
49732.0,STARLINK-3246,PAYLOAD,2023-11-18 17:48:09,15.08835248,0.0001683,53.2175,338.747,93.5504,266.5681,1.2942e-05,-8.2e-07,0.0,0 STARLINK-3246,1 49732U 21115J   23322.74177364 -.00000082  00000-0  12942-4 0  9999,2 49732  53.2175 338.7470 0001683  93.5504 266.5681 15.08835248108283,6917.895,95.438,540.924,538.596,0.0
49732.0,STARLINK-3246,PAYLOAD,2023-11-19 01:45:05,15.08833582,0.0001668,53.2174,337.26,93.6129,266.5054,2.3098e-05,8e-07,0.0,0 STARLINK-3246,1 49732U 21115J   23323.07297491  .00000080  00000-0  23098-4 0  9991,2 49732  53.2174 337.2600 0001668  93.6129 266.5054 15.08833582109440,6917.9,95.438,540.919,538.611,0.0
49732.0,STARLINK-3246,PAYLOAD,2023-11-19 08:06:37,15.08836999,0.0001662,53.2178,336.0709,93.7849,266.3334,4.6388e-05,4.5e-06,0.0,0 STARLINK-3246,1 49732U 21115J   23323.33793330  .00000450  00000-0  46388-4 0  9991,2 49732  53.2178 336.0709 0001662  93.7849 266.3334 15.08836999108370,6917.89,95.438,540.904,538.605,0.0
49732.0,STARLINK-3246,PAYLOAD,2023-11-19 17:38:56,15.0883626,0.0001643,53.2178,334.287,93.1233,266.9947,3.625e-05,2.89e-06,0.0,0 STARLINK-3246,1 49732U 21115J   23323.73537489  .00000289  00000-0  36250-4 0  9993,2 49732  53.2178 334.2870 0001643  93.1233 266.9947 15.08836260108433,6917.892,95.438,540.893,538.62,0.0
49732.0,STARLINK-3246,PAYLOAD,2023-11-20 09:32:47,15.08842132,0.0001627,53.2175,331.3134,95.0919,265.0259,6.6511e-05,7.71e-06,0.0,0 STARLINK-3246,1 49732U 21115J   23324.39777121  .00000771  00000-0  66511-4 0  9994,2 49732  53.2175 331.3134 0001627  95.0919 265.0259 15.08842132109640,6917.874,95.437,540.864,538.613,0.0
49732.0,STARLINK-3246,PAYLOAD,2023-11-20 22:15:52,15.08836452,0.0001596,53.2173,328.9343,94.2891,265.8283,5.0063e-05,5.09e-06,0.0,0 STARLINK-3246,1 49732U 21115J   23324.92769547  .00000509  00000-0  50063-4 0  9990,2 49732  53.2173 328.9343 0001596  94.2891 265.8283 15.08836452109729,6917.891,95.438,540.86,538.652,0.0
